start=new Date('2022-01-16T00:00:00.000Z').valueOf();
sats=[{"ELEMENT_SET_NO":"999","CLASSIFICATION_TYPE":"U","MEAN_MOTION":"15.07209740","OBJECT_ID":"2020-006AA","SITE":"AFETR","PERIAPSIS":"543.711","TLE_LINE2":"2 45068  53.0541 222.5346 0001476  72.4861 287.6289 15.07209740108560","INCLINATION":"53.0541","COUNTRY_CODE":"US","EPHEMERIS_TYPE":"0","OBJECT_NAME":"STARLINK-1161","RCS_SIZE":"LARGE","MEAN_ANOMALY":"287.6289","GP_ID":"193945325","MEAN_MOTION_DOT":"0.00001170","LAUNCH_DATE":"2020-01-29","APOAPSIS":"545.755","RA_OF_ASC_NODE":"222.5346","TLE_LINE1":"1 45068U 20006AA  22015.83812368  .00001170  00000-0  95438-4 0  9992","BSTAR":"0.00009543800000","REV_AT_EPOCH":"10856","CENTER_NAME":"EARTH","DECAY_DATE":null,"REF_FRAME":"TEME","MEAN_ELEMENT_THEORY":"SGP4","ARG_OF_PERICENTER":"72.4861","TIME_SYSTEM":"UTC","MEAN_MOTION_DDOT":"0.0000000000000","FILE":"3274074","PERIOD":"95.541","OBJECT_TYPE":"PAYLOAD","ECCENTRICITY":"0.00014760","SEMIMAJOR_AXIS":"6922.868","NORAD_CAT_ID":"45068","EPOCH":"2022-01-15T20:06:53.885952"},{"REF_FRAME":"TEME","DECAY_DATE":null,"CENTER_NAME":"EARTH","ARG_OF_PERICENTER":"69.9097","MEAN_ELEMENT_THEORY":"SGP4","RA_OF_ASC_NODE":"222.3551","MEAN_MOTION_DOT":"0.00001278","LAUNCH_DATE":"2020-01-29","APOAPSIS":"548.722","BSTAR":"0.00010470000000","TLE_LINE1":"1 45071U 20006AD  22015.88598070  .00001278  00000-0  10470-3 0  9993","REV_AT_EPOCH":"10857","ECCENTRICITY":"0.00022270","OBJECT_TYPE":"PAYLOAD","EPOCH":"2022-01-15T21:15:48.732480","NORAD_CAT_ID":"45071","SEMIMAJOR_AXIS":"6925.315","TIME_SYSTEM":"UTC","PERIOD":"95.591","MEAN_MOTION_DDOT":"0.0000000000000","FILE":"3274074","PERIAPSIS":"545.638","INCLINATION":"53.0543","TLE_LINE2":"2 45071  53.0543 222.3551 0002227  69.9097 290.2132 15.06410896108572","ELEMENT_SET_NO":"999","MEAN_MOTION":"15.06410896","CLASSIFICATION_TYPE":"U","SITE":"AFETR","OBJECT_ID":"2020-006AD","MEAN_ANOMALY":"290.2132","GP_ID":"193946069","EPHEMERIS_TYPE":"0","COUNTRY_CODE":"US","OBJECT_NAME":"STARLINK-1167","RCS_SIZE":"LARGE"},{"TIME_SYSTEM":"UTC","PERIOD":"95.592","FILE":"3274074","MEAN_MOTION_DDOT":"0.0000000000000","ECCENTRICITY":"0.00024980","OBJECT_TYPE":"PAYLOAD","EPOCH":"2022-01-15T21:21:08.415936","NORAD_CAT_ID":"45072","SEMIMAJOR_AXIS":"6925.358","RA_OF_ASC_NODE":"222.3245","LAUNCH_DATE":"2020-01-29","APOAPSIS":"548.953","MEAN_MOTION_DOT":"-0.00001159","BSTAR":"-0.00005889400000","TLE_LINE1":"1 45072U 20006AE  22015.88968074 -.00001159  00000-0 -58894-4 0  9992","REV_AT_EPOCH":"10857","REF_FRAME":"TEME","DECAY_DATE":null,"CENTER_NAME":"EARTH","ARG_OF_PERICENTER":"101.0636","MEAN_ELEMENT_THEORY":"SGP4","EPHEMERIS_TYPE":"0","COUNTRY_CODE":"US","OBJECT_NAME":"STARLINK-1168","RCS_SIZE":"LARGE","MEAN_ANOMALY":"259.0634","GP_ID":"193944324","ELEMENT_SET_NO":"999","MEAN_MOTION":"15.06396956","CLASSIFICATION_TYPE":"U","SITE":"AFETR","OBJECT_ID":"2020-006AE","PERIAPSIS":"545.493","INCLINATION":"53.0545","TLE_LINE2":"2 45072  53.0545 222.3245 0002498 101.0636 259.0634 15.06396956108572"},{"PERIAPSIS":"545.620","INCLINATION":"53.0533","TLE_LINE2":"2 45073  53.0533 222.5068 0002294  69.7611 290.3624 15.06401634108568","ELEMENT_SET_NO":"999","MEAN_MOTION":"15.06401634","CLASSIFICATION_TYPE":"U","SITE":"AFETR","OBJECT_ID":"2020-006AF","MEAN_ANOMALY":"290.3624","GP_ID":"193944574","EPHEMERIS_TYPE":"0","COUNTRY_CODE":"US","OBJECT_NAME":"STARLINK-1170","RCS_SIZE":"LARGE","REF_FRAME":"TEME","DECAY_DATE":null,"CENTER_NAME":"EARTH","ARG_OF_PERICENTER":"69.7611","MEAN_ELEMENT_THEORY":"SGP4","RA_OF_ASC_NODE":"222.5068","APOAPSIS":"548.797","LAUNCH_DATE":"2020-01-29","MEAN_MOTION_DOT":"0.00001100","BSTAR":"0.00009275200000","TLE_LINE1":"1 45073U 20006AF  22015.84914150  .00001100  00000-0  92752-4 0  9990","REV_AT_EPOCH":"10856","ECCENTRICITY":"0.00022940","OBJECT_TYPE":"PAYLOAD","EPOCH":"2022-01-15T20:22:45.825600","SEMIMAJOR_AXIS":"6925.344","NORAD_CAT_ID":"45073","TIME_SYSTEM":"UTC","PERIOD":"95.592","FILE":"3274074","MEAN_MOTION_DDOT":"0.0000000000000"},{"SEMIMAJOR_AXIS":"6925.326","NORAD_CAT_ID":"45074","EPOCH":"2022-01-15T20:01:31.202688","OBJECT_TYPE":"PAYLOAD","ECCENTRICITY":"0.00025170","FILE":"3274074","MEAN_MOTION_DDOT":"0.0000000000000","PERIOD":"95.592","TIME_SYSTEM":"UTC","MEAN_ELEMENT_THEORY":"SGP4","ARG_OF_PERICENTER":"71.1626","CENTER_NAME":"EARTH","DECAY_DATE":null,"REF_FRAME":"TEME","REV_AT_EPOCH":"10856","TLE_LINE1":"1 45074U 20006AG  22015.83438892  .00001296  00000-0  10591-3 0  9990","BSTAR":"0.00010591000000","APOAPSIS":"548.934","LAUNCH_DATE":"2020-01-29","MEAN_MOTION_DOT":"0.00001296","RA_OF_ASC_NODE":"222.5936","GP_ID":"193945824","MEAN_ANOMALY":"288.9635","RCS_SIZE":"LARGE","OBJECT_NAME":"STARLINK-1172","COUNTRY_CODE":"US","EPHEMERIS_TYPE":"0","TLE_LINE2":"2 45074  53.0543 222.5936 0002517  71.1626 288.9635 15.06407399108564","INCLINATION":"53.0543","PERIAPSIS":"545.448","OBJECT_ID":"2020-006AG","SITE":"AFETR","CLASSIFICATION_TYPE":"U","MEAN_MOTION":"15.06407399","ELEMENT_SET_NO":"999"},{"PERIAPSIS":"545.598","INCLINATION":"53.0526","TLE_LINE2":"2 45075  53.0526 222.4386 0002349  75.9523 284.1727 15.06396222108578","ELEMENT_SET_NO":"999","MEAN_MOTION":"15.06396222","CLASSIFICATION_TYPE":"U","OBJECT_ID":"2020-006AH","SITE":"AFETR","MEAN_ANOMALY":"284.1727","GP_ID":"193945570","EPHEMERIS_TYPE":"0","COUNTRY_CODE":"US","OBJECT_NAME":"STARLINK-1174","RCS_SIZE":"LARGE","REF_FRAME":"TEME","DECAY_DATE":null,"CENTER_NAME":"EARTH","ARG_OF_PERICENTER":"75.9523","MEAN_ELEMENT_THEORY":"SGP4","RA_OF_ASC_NODE":"222.4386","LAUNCH_DATE":"2020-01-29","MEAN_MOTION_DOT":"0.00000975","APOAPSIS":"548.852","BSTAR":"0.00008435800000","TLE_LINE1":"1 45075U 20006AH  22015.86756716  .00000975  00000-0  84358-4 0  9998","REV_AT_EPOCH":"10857","ECCENTRICITY":"0.00023490","OBJECT_TYPE":"PAYLOAD","EPOCH":"2022-01-15T20:49:17.802624","NORAD_CAT_ID":"45075","SEMIMAJOR_AXIS":"6925.360","TIME_SYSTEM":"UTC","PERIOD":"95.592","FILE":"3274074","MEAN_MOTION_DDOT":"0.0000000000000"},{"TIME_SYSTEM":"UTC","PERIOD":"95.592","FILE":"3274074","MEAN_MOTION_DDOT":"0.0000000000000","EPOCH":"2022-01-15T20:59:54.305376","NORAD_CAT_ID":"45076","SEMIMAJOR_AXIS":"6925.327","ECCENTRICITY":"0.00024130","OBJECT_TYPE":"PAYLOAD","BSTAR":"0.00015471000000","TLE_LINE1":"1 45076U 20006AJ  22015.87493409  .00002024  00000-0  15471-3 0  9993","RA_OF_ASC_NODE":"222.3967","LAUNCH_DATE":"2020-01-29","APOAPSIS":"548.863","MEAN_MOTION_DOT":"0.00002024","REV_AT_EPOCH":"10857","DECAY_DATE":null,"REF_FRAME":"TEME","CENTER_NAME":"EARTH","ARG_OF_PERICENTER":"74.2430","MEAN_ELEMENT_THEORY":"SGP4","EPHEMERIS_TYPE":"0","COUNTRY_CODE":"US","RCS_SIZE":"LARGE","OBJECT_NAME":"STARLINK-1180","MEAN_ANOMALY":"285.8825","GP_ID":"193944824","ELEMENT_SET_NO":"999","SITE":"AFETR","OBJECT_ID":"2020-006AJ","MEAN_MOTION":"15.06406933","CLASSIFICATION_TYPE":"U","PERIAPSIS":"545.521","INCLINATION":"53.0539","TLE_LINE2":"2 45076  53.0539 222.3967 0002413  74.2430 285.8825 15.06406933108576"},{"INCLINATION":"53.0538","TLE_LINE2":"2 45077  53.0538 179.3819 0001401   6.1662 353.9370 15.66947088109165","PERIAPSIS":"366.702","SITE":"AFETR","OBJECT_ID":"2020-006AK","MEAN_MOTION":"15.66947088","CLASSIFICATION_TYPE":"U","ELEMENT_SET_NO":"999","GP_ID":"193945074","MEAN_ANOMALY":"353.9370","RCS_SIZE":"LARGE","OBJECT_NAME":"STARLINK-1182","EPHEMERIS_TYPE":"0","COUNTRY_CODE":"US","ARG_OF_PERICENTER":"6.1662","MEAN_ELEMENT_THEORY":"SGP4","REF_FRAME":"TEME","DECAY_DATE":null,"CENTER_NAME":"EARTH","REV_AT_EPOCH":"10916","BSTAR":"0.00333980000000","TLE_LINE1":"1 45077U 20006AK  22015.68759895  .00377863  00000-0  33398-2 0  9990","RA_OF_ASC_NODE":"179.3819","LAUNCH_DATE":"2020-01-29","APOAPSIS":"368.592","MEAN_MOTION_DOT":"0.00377863","EPOCH":"2022-01-15T16:30:08.549280","NORAD_CAT_ID":"45077","SEMIMAJOR_AXIS":"6745.782","ECCENTRICITY":"0.00014010","OBJECT_TYPE":"PAYLOAD","PERIOD":"91.898","MEAN_MOTION_DDOT":"0.0000000000000","FILE":"3274074","TIME_SYSTEM":"UTC"},{"REF_FRAME":"TEME","DECAY_DATE":null,"CENTER_NAME":"EARTH","ARG_OF_PERICENTER":"78.7532","MEAN_ELEMENT_THEORY":"SGP4","RA_OF_ASC_NODE":"222.6218","LAUNCH_DATE":"2020-01-29","APOAPSIS":"548.525","MEAN_MOTION_DOT":"0.00001900","BSTAR":"0.00014645000000","TLE_LINE1":"1 45078U 20006AL  22015.82703104  .00001900  00000-0  14645-3 0  9990","REV_AT_EPOCH":"10855","ECCENTRICITY":"0.00018920","OBJECT_TYPE":"PAYLOAD","EPOCH":"2022-01-15T19:50:55.481856","SEMIMAJOR_AXIS":"6925.350","NORAD_CAT_ID":"45078","TIME_SYSTEM":"UTC","PERIOD":"95.592","MEAN_MOTION_DDOT":"0.0000000000000","FILE":"3274074","PERIAPSIS":"545.904","INCLINATION":"53.0555","TLE_LINE2":"2 45078  53.0555 222.6218 0001892  78.7532 281.3669 15.06399606108553","ELEMENT_SET_NO":"999","MEAN_MOTION":"15.06399606","CLASSIFICATION_TYPE":"U","OBJECT_ID":"2020-006AL","SITE":"AFETR","MEAN_ANOMALY":"281.3669","GP_ID":"193945326","EPHEMERIS_TYPE":"0","COUNTRY_CODE":"US","OBJECT_NAME":"STARLINK-1177","RCS_SIZE":"LARGE"},{"ARG_OF_PERICENTER":"70.5804","MEAN_ELEMENT_THEORY":"SGP4","REF_FRAME":"TEME","DECAY_DATE":null,"CENTER_NAME":"EARTH","REV_AT_EPOCH":"10856","BSTAR":"0.00009390900000","TLE_LINE1":"1 45079U 20006AM  22015.87124298  .00001117  00000-0  93909-4 0  9998","RA_OF_ASC_NODE":"222.4135","LAUNCH_DATE":"2020-01-29","APOAPSIS":"548.947","MEAN_MOTION_DOT":"0.00001117","EPOCH":"2022-01-15T20:54:35.393472","SEMIMAJOR_AXIS":"6925.337","NORAD_CAT_ID":"45079","ECCENTRICITY":"0.00025200","OBJECT_TYPE":"PAYLOAD","PERIOD":"95.592","FILE":"3274074","MEAN_MOTION_DDOT":"0.0000000000000","TIME_SYSTEM":"UTC","INCLINATION":"53.0529","TLE_LINE2":"2 45079  53.0529 222.4135 0002520  70.5804 289.5457 15.06403897108566","PERIAPSIS":"545.456","SITE":"AFETR","OBJECT_ID":"2020-006AM","MEAN_MOTION":"15.06403897","CLASSIFICATION_TYPE":"U","ELEMENT_SET_NO":"999","GP_ID":"193946070","MEAN_ANOMALY":"289.5457","RCS_SIZE":"LARGE","OBJECT_NAME":"STARLINK-1149","EPHEMERIS_TYPE":"0","COUNTRY_CODE":"US"}];
